{"type": "FeatureCollection", "features": [ {"type": "Feature", "properties": {"norad_id": 34117, "name": "COSMOS 2251 DEB", "group": "cosmos-2251-debris", "lat": -45.55702981148752, "lon": -51.45791854789359, "alt_km": 762.4347944897036, "timestamp": "2025-12-22T15:43:49.403303+00:00", "meta": {"OBJECT_NAME": "COSMOS 2251 DEB", "OBJECT_ID": "1993-036KN", "EPOCH": "2025-12-22T04:16:50.183040", "MEAN_MOTION": 14.40047914, "ECCENTRICITY": 0.00549431, "INCLINATION": 74.0394, "RA_OF_ASC_NODE": 326.3893, "ARG_OF_PERICENTER": 40.0969, "MEAN_ANOMALY": 320.4221, "EPHEMERIS_TYPE": 0, "CLASSIFICATION_TYPE": "U", "NORAD_CAT_ID": 34117, "ELEMENT_SET_NO": 999, "REV_AT_EPOCH": 88259, "BSTAR": 0.00061201119, "MEAN_MOTION_DOT": 1.938e-05, "MEAN_MOTION_DDOT": 0}, "tle": {"line1": "1 34117U 93036KN  25356.17835860  .00001938  00000+0  61201-3 0  9999", "line2": "2 34117  74.0394 326.3893 0054943  40.0969 320.4221 14.40047914882592"}}, "geometry": {"type": "Point", "coordinates": [-51.45791854789359, -45.55702981148752]}}, {"type": "Feature", "properties": {"norad_id": 34118, "name": "COSMOS 2251 DEB", "group": "cosmos-2251-debris", "lat": 25.563595638972465, "lon": 41.319228408731476, "alt_km": 587.8819404673268, "timestamp": "2025-12-22T15:43:49.403316+00:00", "meta": {"OBJECT_NAME": "COSMOS 2251 DEB", "OBJECT_ID": "1993-036KP", "EPOCH": "2025-12-22T02:52:25.784832", "MEAN_MOTION": 14.9423226, "ECCENTRICITY": 0.00600908, "INCLINATION": 73.9511, "RA_OF_ASC_NODE": 230.318, "ARG_OF_PERICENTER": 58.165, "MEAN_ANOMALY": 93.962, "EPHEMERIS_TYPE": 0, "CLASSIFICATION_TYPE": "U", "NORAD_CAT_ID": 34118, "ELEMENT_SET_NO": 999, "REV_AT_EPOCH": 89316, "BSTAR": 0.0014639243, "MEAN_MOTION_DOT": 0.0001627, "MEAN_MOTION_DDOT": 0}, "tle": {"line1": "1 34118U 93036KP  25356.11974288  .00016270  00000+0  14639-2 0  9999", "line2": "2 34118  73.9511 230.3180 0060090  58.1650  93.9620 14.94232260893161"}}, "geometry": {"type": "Point", "coordinates": [41.319228408731476, 25.563595638972465]}}, {"type": "Feature", "properties": {"norad_id": 34120, "name": "COSMOS 2251 DEB", "group": "cosmos-2251-debris", "lat": 36.26567099307419, "lon": -148.79484277815533, "alt_km": 766.2434691385306, "timestamp": "2025-12-22T15:43:49.403327+00:00", "meta": {"OBJECT_NAME": "COSMOS 2251 DEB", "OBJECT_ID": "1993-036KR", "EPOCH": "2025-12-22T00:40:01.394688", "MEAN_MOTION": 13.98693899, "ECCENTRICITY": 0.01823593, "INCLINATION": 73.9903, "RA_OF_ASC_NODE": 200.1324, "ARG_OF_PERICENTER": 25.7536, "MEAN_ANOMALY": 92.7049, "EPHEMERIS_TYPE": 0, "CLASSIFICATION_TYPE": "U", "NORAD_CAT_ID": 34120, "ELEMENT_SET_NO": 999, "REV_AT_EPOCH": 86110, "BSTAR": 0.00027390464, "MEAN_MOTION_DOT": 4.3e-06, "MEAN_MOTION_DDOT": 0}, "tle": {"line1": "1 34120U 93036KR  25356.02779392  .00000430  00000+0  27390-3 0  9991", "line2": "2 34120  73.9903 200.1324 0182359  25.7536  92.7049 13.98693899861103"}}, "geometry": {"type": "Point", "coordinates": [-148.79484277815533, 36.26567099307419]}}, {"type": "Feature", "properties": {"norad_id": 34121, "name": "COSMOS 2251 DEB", "group": "cosmos-2251-debris", "lat": 11.936619394376002, "lon": 83.65747579337297, "alt_km": 915.281734701829, "timestamp": "2025-12-22T15:43:49.403337+00:00", "meta": {"OBJECT_NAME": "COSMOS 2251 DEB", "OBJECT_ID": "1993-036KS", "EPOCH": "2025-12-22T05:27:52.103232", "MEAN_MOTION": 13.91963089, "ECCENTRICITY": 0.0240891, "INCLINATION": 73.9923, "RA_OF_ASC_NODE": 80.911, "ARG_OF_PERICENTER": 284.3753, "MEAN_ANOMALY": 102.7576, "EPHEMERIS_TYPE": 0, "CLASSIFICATION_TYPE": "U", "NORAD_CAT_ID": 34121, "ELEMENT_SET_NO": 999, "REV_AT_EPOCH": 85257, "BSTAR": 0.0011252438, "MEAN_MOTION_DOT": 1.794e-05, "MEAN_MOTION_DDOT": 0}, "tle": {"line1": "1 34121U 93036KS  25356.22768638  .00001794  00000+0  11252-2 0  9998", "line2": "2 34121  73.9923  80.9110 0240891 284.3753 102.7576 13.91963089852575"}}, "geometry": {"type": "Point", "coordinates": [83.65747579337297, 11.936619394376002]}}, {"type": "Feature", "properties": {"norad_id": 34122, "name": "COSMOS 2251 DEB", "group": "cosmos-2251-debris", "lat": -10.678577669233395, "lon": 96.46299069851581, "alt_km": 620.8213838763604, "timestamp": "2025-12-22T15:43:49.403347+00:00", "meta": {"OBJECT_NAME": "COSMOS 2251 DEB", "OBJECT_ID": "1993-036KT", "EPOCH": "2025-12-22T01:50:10.399200", "MEAN_MOTION": 14.6514907, "ECCENTRICITY": 0.00848595, "INCLINATION": 74.0366, "RA_OF_ASC_NODE": 100.6705, "ARG_OF_PERICENTER": 354.8909, "MEAN_ANOMALY": 181.8922, "EPHEMERIS_TYPE": 0, "CLASSIFICATION_TYPE": "U", "NORAD_CAT_ID": 34122, "ELEMENT_SET_NO": 999, "REV_AT_EPOCH": 88821, "BSTAR": 0.0010000679, "MEAN_MOTION_DOT": 5.641e-05, "MEAN_MOTION_DDOT": 0}, "tle": {"line1": "1 34122U 93036KT  25356.07650925  .00005641  00000+0  10001-2 0  9997", "line2": "2 34122  74.0366 100.6705 0084859 354.8909 181.8922 14.65149070888216"}}, "geometry": {"type": "Point", "coordinates": [96.46299069851581, -10.678577669233395]}}, {"type": "Feature", "properties": {"norad_id": 34127, "name": "COSMOS 2251 DEB", "group": "cosmos-2251-debris", "lat": 35.20168759032437, "lon": -165.59594660726125, "alt_km": 769.545674041472, "timestamp": "2025-12-22T15:43:49.403358+00:00", "meta": {"OBJECT_NAME": "COSMOS 2251 DEB", "OBJECT_ID": "1993-036KY", "EPOCH": "2025-12-22T01:46:28.111872", "MEAN_MOTION": 14.31623479, "ECCENTRICITY": 0.0114796, "INCLINATION": 74.1791, "RA_OF_ASC_NODE": 26.9935, "ARG_OF_PERICENTER": 225.1428, "MEAN_ANOMALY": 163.5218, "EPHEMERIS_TYPE": 0, "CLASSIFICATION_TYPE": "U", "NORAD_CAT_ID": 34127, "ELEMENT_SET_NO": 999, "REV_AT_EPOCH": 86905, "BSTAR": 0.0015210856, "MEAN_MOTION_DOT": 4.332e-05, "MEAN_MOTION_DDOT": 0}, "tle": {"line1": "1 34127U 93036KY  25356.07393648  .00004332  00000+0  15211-2 0  9992", "line2": "2 34127  74.1791  26.9935 0114796 225.1428 163.5218 14.31623479869058"}}, "geometry": {"type": "Point", "coordinates": [-165.59594660726125, 35.20168759032437]}}, {"type": "Feature", "properties": {"norad_id": 34128, "name": "COSMOS 2251 DEB", "group": "cosmos-2251-debris", "lat": -39.88078181063627, "lon": -97.39034290697835, "alt_km": 561.6068978204594, "timestamp": "2025-12-22T15:43:49.403368+00:00", "meta": {"OBJECT_NAME": "COSMOS 2251 DEB", "OBJECT_ID": "1993-036KZ", "EPOCH": "2025-12-22T05:23:11.424192", "MEAN_MOTION": 15.01502667, "ECCENTRICITY": 0.00259463, "INCLINATION": 73.9995, "RA_OF_ASC_NODE": 277.3619, "ARG_OF_PERICENTER": 27.2664, "MEAN_ANOMALY": 122.5343, "EPHEMERIS_TYPE": 0, "CLASSIFICATION_TYPE": "U", "NORAD_CAT_ID": 34128, "ELEMENT_SET_NO": 999, "REV_AT_EPOCH": 89309, "BSTAR": 0.0016774332, "MEAN_MOTION_DOT": 0.00021886, "MEAN_MOTION_DDOT": 0}, "tle": {"line1": "1 34128U 93036KZ  25356.22443778  .00021886  00000+0  16774-2 0  9998", "line2": "2 34128  73.9995 277.3619 0025946  27.2664 122.5343 15.01502667893092"}}, "geometry": {"type": "Point", "coordinates": [-97.39034290697835, -39.88078181063627]}}, {"type": "Feature", "properties": {"norad_id": 34129, "name": "COSMOS 2251 DEB", "group": "cosmos-2251-debris", "lat": 43.04774931810557, "lon": -24.369762836944545, "alt_km": 615.1013744248094, "timestamp": "2025-12-22T15:43:49.403378+00:00", "meta": {"OBJECT_NAME": "COSMOS 2251 DEB", "OBJECT_ID": "1993-036LA", "EPOCH": "2025-12-22T00:53:10.258656", "MEAN_MOTION": 14.75890629, "ECCENTRICITY": 0.00333862, "INCLINATION": 74.0353, "RA_OF_ASC_NODE": 321.3307, "ARG_OF_PERICENTER": 39.9385, "MEAN_ANOMALY": 320.4236, "EPHEMERIS_TYPE": 0, "CLASSIFICATION_TYPE": "U", "NORAD_CAT_ID": 34129, "ELEMENT_SET_NO": 999, "REV_AT_EPOCH": 61435, "BSTAR": 0.0014549106, "MEAN_MOTION_DOT": 0.00010066, "MEAN_MOTION_DDOT": 0}, "tle": {"line1": "1 34129U 93036LA  25356.03692429  .00010066  00000+0  14549-2 0  9993", "line2": "2 34129  74.0353 321.3307 0033386  39.9385 320.4236 14.75890629614352"}}, "geometry": {"type": "Point", "coordinates": [-24.369762836944545, 43.04774931810557]}}, {"type": "Feature", "properties": {"norad_id": 34136, "name": "COSMOS 2251 DEB", "group": "cosmos-2251-debris", "lat": -7.495721872740763, "lon": 20.915183731767264, "alt_km": 684.551316319601, "timestamp": "2025-12-22T15:43:49.403389+00:00", "meta": {"OBJECT_NAME": "COSMOS 2251 DEB", "OBJECT_ID": "1993-036LH", "EPOCH": "2025-12-22T04:45:31.793760", "MEAN_MOTION": 14.80136292, "ECCENTRICITY": 0.00851335, "INCLINATION": 74.0198, "RA_OF_ASC_NODE": 23.9773, "ARG_OF_PERICENTER": 144.3718, "MEAN_ANOMALY": 293.5284, "EPHEMERIS_TYPE": 0, "CLASSIFICATION_TYPE": "U", "NORAD_CAT_ID": 34136, "ELEMENT_SET_NO": 999, "REV_AT_EPOCH": 90150, "BSTAR": 0.00034784945, "MEAN_MOTION_DOT": 2.772e-05, "MEAN_MOTION_DDOT": 0}, "tle": {"line1": "1 34136U 93036LH  25356.19828465  .00002772  00000+0  34785-3 0  9999", "line2": "2 34136  74.0198  23.9773 0085133 144.3718 293.5284 14.80136292901501"}}, "geometry": {"type": "Point", "coordinates": [20.915183731767264, -7.495721872740763]}}, {"type": "Feature", "properties": {"norad_id": 34139, "name": "COSMOS 2251 DEB", "group": "cosmos-2251-debris", "lat": 43.77885833061565, "lon": -108.91045506803204, "alt_km": 697.6516257359963, "timestamp": "2025-12-22T15:43:49.403399+00:00", "meta": {"OBJECT_NAME": "COSMOS 2251 DEB", "OBJECT_ID": "1993-036LL", "EPOCH": "2025-12-22T03:05:41.877024", "MEAN_MOTION": 14.59175422, "ECCENTRICITY": 0.00424471, "INCLINATION": 74.0299, "RA_OF_ASC_NODE": 236.1656, "ARG_OF_PERICENTER": 305.7485, "MEAN_ANOMALY": 215.4128, "EPHEMERIS_TYPE": 0, "CLASSIFICATION_TYPE": "U", "NORAD_CAT_ID": 34139, "ELEMENT_SET_NO": 999, "REV_AT_EPOCH": 88286, "BSTAR": 0.0012901805, "MEAN_MOTION_DOT": 6.132e-05, "MEAN_MOTION_DDOT": 0}, "tle": {"line1": "1 34139U 93036LL  25356.12895691  .00006132  00000+0  12902-2 0  9990", "line2": "2 34139  74.0299 236.1656 0042447 305.7485 215.4128 14.59175422882860"}}, "geometry": {"type": "Point", "coordinates": [-108.91045506803204, 43.77885833061565]}}]}